OBJECT_NAME,OBJECT_ID,EPOCH,MEAN_MOTION,ECCENTRICITY,INCLINATION,RA_OF_ASC_NODE,ARG_OF_PERICENTER,MEAN_ANOMALY,EPHEMERIS_TYPE,CLASSIFICATION_TYPE,NORAD_CAT_ID,ELEMENT_SET_NO,REV_AT_EPOCH,BSTAR,MEAN_MOTION_DOT,MEAN_MOTION_DDOT
STARLINK-11538 [DTC],2025-006A,2026-07-22T21:55:11.904672,15.70839071,.00019501,43.0002,44.4485,278.4818,81.5828,0,U,62554,999,8787,.11167058E-2,.145369E-2,0
STARLINK-11534 [DTC],2025-006B,2026-07-22T22:02:50.311968,15.70981171,.00040803,43.0012,44.4923,259.8227,100.2181,0,U,62555,999,8787,.13383613E-2,.176055E-2,0
STARLINK-11515 [DTC],2025-006C,2026-07-22T20:00:53.524512,15.70838520,.00021284,43.0013,45.6032,282.6889,77.3740,0,U,62556,999,8785,.11189642E-2,.145668E-2,0
STARLINK-11478 [DTC],2025-006D,2026-07-22T08:00:01.999872,15.70911779,.00017344,43.0015,48.3179,257.1264,268.8923,0,U,62557,999,600,-.15379155E-2,-.193851E-2,0
STARLINK-11358 [DTC],2025-006E,2026-07-22T14:47:58.291296,15.70919941,.00027022,43.0009,46.5361,245.7886,114.2699,0,U,62558,999,8782,.11465171E-2,.149862E-2,0
STARLINK-11517 [DTC],2025-006F,2026-07-21T22:16:06.646080,15.70876770,.00020829,43.0015,50.8350,276.3173,83.7458,0,U,62559,999,8771,.157192E-2,.206667E-2,0
STARLINK-11519 [DTC],2025-006G,2026-07-22T14:03:35.934912,15.70906710,.0001624,42.9994,47.1803,293.5004,66.5693,0,U,62560,999,8781,.13540768E-2,.177556E-2,0
STARLINK-11451 [DTC],2025-006H,2026-07-22T22:10:29.722368,15.70830743,.00015185,42.9994,44.5323,293.1793,66.8915,0,U,62561,999,8787,.15029725E-2,.196965E-2,0
STARLINK-11530 [DTC],2025-006J,2026-07-22T21:40:05.454624,15.70848643,.00016702,43.0015,45.2571,260.8594,99.2084,0,U,62562,999,8786,.10567458E-2,.137461E-2,0
STARLINK-11536 [DTC],2025-006K,2026-07-22T22:18:07.933536,15.70907859,.00029742,43.0013,44.5766,269.6904,90.3623,0,U,62563,999,8787,.13463305E-2,.176542E-2,0
STARLINK-11540 [DTC],2025-006L,2026-07-22T21:17:09.798144,15.71003980,.00016779,42.9997,45.1256,266.5156,93.5519,0,U,62564,999,8786,.16181369E-2,.214087E-2,0
STARLINK-11523 [DTC],2025-006M,2026-07-22T21:24:48.483648,15.70885268,.00011505,43.0009,45.1701,283.8536,76.2203,0,U,62565,999,8786,.19844468E-2,.262902E-2,0
STARLINK-11525 [DTC],2025-006N,2026-07-22T20:16:10.580160,15.70806205,.00026073,43.0019,45.6815,267.5437,92.5133,0,U,62566,999,8785,-.93405051E-4,-.12401E-3,0
STARLINK-32752,2025-006P,2026-07-22T20:33:13.597632,15.27578521,.00019909,43.0018,249.3186,274.4360,85.6264,0,U,62567,999,8553,.67039897E-3,.18231E-3,0
STARLINK-32760,2025-006Q,2026-07-22T11:15:41.230080,15.27595792,.00014097,43.0000,251.5582,277.3739,82.6952,0,U,62568,999,8547,.56661441E-3,.1537E-3,0
STARLINK-32715,2025-006R,2026-07-22T13:02:47.896224,15.27588497,.00016756,42.9995,251.2676,271.7175,88.3485,0,U,62569,999,8548,.29111829E-3,.7759E-4,0
STARLINK-32764,2025-006S,2026-07-22T19:30:31.884192,15.27586788,.00011939,42.9998,249.8427,306.2296,53.8445,0,U,62570,999,8552,.65491736E-3,.17807E-3,0
STARLINK-32773,2025-006T,2026-07-22T20:07:19.513056,15.27577438,.00010669,43.0009,249.1763,281.9135,78.1597,0,U,62571,999,8553,.61042853E-3,.16572E-3,0
STARLINK-32750,2025-006U,2026-07-22T19:41:25.504512,15.27585704,.00007201,42.9989,249.0327,307.2593,52.8193,0,U,62572,999,8553,.5562469E-3,.15079E-3,0
STARLINK-32771,2025-006V,2026-07-22T19:56:13.441632,15.27579554,.0000681,42.9989,249.1138,311.3235,48.7558,0,U,62573,999,8553,.56646938E-3,.15358E-3,0
STARLINK-32766,2025-006W,2026-07-22T12:31:20.480448,15.27602677,.00017049,43.0024,251.1004,288.1974,71.8692,0,U,62574,999,8548,.579867E-3,.1574E-3,0
CENTISPACE-1 S7,2025-007B,2026-07-22T22:20:17.906784,13.80616094,.00135569,54.9750,166.9818,129.9435,230.2715,0,U,62576,999,7965,.6189171E-4,-.75E-6,0
CENTISPACE-1 S8,2025-007C,2026-07-22T21:59:13.485984,13.80618561,.00135429,54.9837,166.6372,184.9544,175.1281,0,U,62577,999,7966,.49000683E-4,-.89E-6,0
CENTISPACE-1 S9,2025-007D,2026-07-22T22:41:08.373984,13.80615199,.00121864,54.9810,167.2520,138.4340,221.7545,0,U,62578,999,7965,.5128254E-4,-.86E-6,0
CENTISPACE-1 S10,2025-007E,2026-07-22T21:27:52.627104,13.80616545,.00115448,54.9875,166.6253,155.6973,204.4529,0,U,62579,999,7966,.70990627E-4,-.66E-6,0
CENTISPACE-1 S11,2025-007F,2026-07-22T21:48:37.354752,13.80617583,.00111761,54.9763,166.1735,157.5555,202.5893,0,U,62580,999,7966,.68608384E-4,-.68E-6,0
CENTISPACE-1 S12,2025-007G,2026-07-22T22:30:18.626976,13.80614634,.0014496,54.9756,166.3455,191.2472,168.8162,0,U,62581,999,7967,.48551574E-4,-.89E-6,0
CENTISPACE-1 S13,2025-007H,2026-07-22T22:09:36.147456,13.80618384,.00116279,54.9794,166.5186,146.9488,213.2197,0,U,62582,999,7966,.68378832E-4,-.68E-6,0
CENTISPACE-1 S14,2025-007J,2026-07-22T21:38:36.472992,13.80615794,.00115119,54.9829,167.7012,154.1308,206.0226,0,U,62583,999,7964,.58476864E-4,-.79E-6,0
CENTISPACE-1 S15,2025-007K,2026-07-22T21:16:49.790496,13.80630953,.00141127,54.9851,167.7408,138.9145,221.2877,0,U,62584,999,7966,.3465048E-3,.225E-5,0
CENTISPACE-1 S16,2025-007L,2026-07-22T21:06:34.392672,13.80630050,.00124916,54.9869,166.4887,150.7630,209.4028,0,U,62585,999,7964,.16940226E-3,.38E-6,0
STARLINK-11547 [DTC],2025-008A,2026-07-22T21:05:11.740704,15.70872529,.00016005,42.9993,31.5031,293.4757,66.5942,0,U,62587,999,8737,.15135582E-2,.198747E-2,0
STARLINK-11185 [DTC],2025-008B,2026-07-22T21:50:51.019008,15.70828664,.00017522,43.0004,30.8590,252.8780,107.1896,0,U,62588,999,8738,.11961731E-2,.155875E-2,0
STARLINK-11513 [DTC],2025-008C,2026-07-22T20:49:51.548736,15.70872448,.00020091,43.0008,31.4128,272.8789,87.1849,0,U,62589,999,8737,.11219606E-2,.146277E-2,0
STARLINK-11397 [DTC],2025-008D,2026-07-22T21:27:54.781056,15.70845381,.000179,43.0004,30.7291,249.5477,110.5199,0,U,62590,999,8849,.14339566E-2,.187808E-2,0
STARLINK-11420 [DTC],2025-008E,2026-07-22T20:57:31.191552,15.70877251,.00018465,43.0008,31.4548,300.9237,59.1449,0,U,62591,999,8855,.2129629E-2,.282756E-2,0
STARLINK-11415 [DTC],2025-008F,2026-07-22T21:20:27.024288,15.70842401,.00017892,43.0010,31.5822,286.1505,73.9166,0,U,62592,999,8848,.10447192E-2,.13583E-2,0
STARLINK-11413 [DTC],2025-008G,2026-07-22T21:12:48.407040,15.70845540,.00017289,43.0008,31.5383,261.2986,98.7686,0,U,62593,999,8844,.126277E-2,.164874E-2,0
STARLINK-11535 [DTC],2025-008J,2026-07-22T21:35:33.317952,15.70846970,.00015681,43.0009,30.7695,257.9908,102.0784,0,U,62595,999,8840,.11375569E-2,.148189E-2,0
STARLINK-11521 [DTC],2025-008L,2026-07-22T21:58:29.317440,15.70863744,.00026461,43.0015,30.8977,255.0051,105.0524,0,U,62597,999,8855,.15583238E-2,.204723E-2,0
STARLINK-11258 [DTC],2025-008M,2026-07-22T19:03:00.988416,15.70823744,.00018375,43.0002,31.7071,252.8044,107.2623,0,U,62598,999,8853,.19150589E-2,.252726E-2,0
STARLINK-11529 [DTC],2025-008N,2026-07-22T22:13:46.794720,15.70846046,.00019753,43.0010,30.9827,256.9284,103.1363,0,U,62599,999,8856,.12482181E-2,.162936E-2,0
STARLINK-32747,2025-008P,2026-07-22T11:18:19.032768,15.27603506,.00014786,43.0000,237.0825,264.2524,95.8159,0,U,62600,999,8617,.88063856E-3,.24068E-3,0
STARLINK-32767,2025-008Q,2026-07-22T12:00:39.918528,15.27598397,.00017019,42.9994,236.4380,273.4208,86.6449,0,U,62601,999,8624,.55589974E-3,.15075E-3,0
STARLINK-32769,2025-008R,2026-07-22T12:06:13.004352,15.27604619,.00017826,42.9993,236.4633,273.1824,86.8824,0,U,62602,999,8624,.64024702E-3,.17411E-3,0
STARLINK-32778,2025-008S,2026-07-22T11:34:58.215072,15.27604972,.00019945,43.0033,237.1711,286.3498,73.7134,0,U,62603,999,8617,.68139466E-3,.1855E-3,0
STARLINK-32710,2025-008T,2026-07-22T11:40:19.477056,15.27578781,.00022312,43.0031,236.3299,281.7238,78.3363,0,U,62604,999,8618,.8716251E-3,.238E-3,0
STARLINK-32742,2025-008U,2026-07-22T19:36:38.477664,15.27581394,.00016001,43.0008,234.5106,283.5030,76.5643,0,U,62605,999,8628,.4895422E-3,.13234E-3,0
STARLINK-32783,2025-008V,2026-07-22T12:11:46.516128,15.27612997,.00013953,43.0002,236.4931,284.4709,75.5988,0,U,62606,999,8618,.66912896E-3,.18215E-3,0
STARLINK-32784,2025-008W,2026-07-22T20:00:01.999872,15.59540634,.00235385,42.9877,214.5156,95.9437,288.8732,0,U,62607,999,594,.2678488E-2,.227266E-2,0
BUZZER-1,2025-009A,2026-07-22T03:57:32.062752,15.21872775,.00071374,97.3915,280.8029,199.6775,160.4187,0,U,62609,999,8401,.99846477E-4,.2203E-4,0
EDISON-1,2025-009B,2026-07-22T04:45:06.806880,15.32360806,.00059776,97.3990,285.6789,168.5250,191.6129,0,U,62610,999,8431,.43813298E-3,.13628E-3,0
BALKAN-1,2025-009C,2026-07-22T05:51:50.449824,15.25427316,.0006278,97.3906,282.0491,196.1969,163.9070,0,U,62611,999,8410,.29040714E-3,.7272E-4,0
GESAT GEN1,2025-009D,2026-07-22T10:18:32.886720,15.29116266,.00020182,97.4007,285.2827,115.9267,244.2181,0,U,62612,999,8430,.32124407E-3,.9006E-4,0
FLOCK 4G-8,2025-009E,2026-07-22T04:54:26.376480,15.30337196,.00047827,97.3993,285.0748,169.2911,190.8432,0,U,62613,999,8427,.36241798E-3,.10565E-3,0
TRANSPORTER-12 OBJECT G,2025-009G,2026-07-22T03:55:21.318816,15.26163253,.00059553,97.3928,282.7490,188.9375,171.1759,0,U,62615,999,8413,.24896584E-3,.6363E-4,0
INNOCUBE (TUBSAT-31),2025-009H,2026-07-22T11:30:05.014944,15.26937347,.00055897,97.3887,283.1098,191.4306,168.6807,0,U,62616,999,8420,.28990389E-3,.7598E-4,0
SCOT-1 (SCOT),2025-009J,2026-07-22T16:45:59.960160,15.58577240,.00054107,97.3837,292.7715,169.2874,190.8498,0,U,62617,999,8487,.10948724E-2,.84485E-3,0
AE1D,2025-009K,2026-07-22T17:07:13.897920,15.69310230,.00052429,97.3918,295.3125,188.8673,171.2497,0,U,62618,999,8500,.13280012E-2,.157523E-2,0
IRIS-F3,2025-009L,2026-07-22T04:10:08.777280,15.27455399,.00063941,97.4030,283.7498,184.3983,175.7201,0,U,62619,999,8416,.29875901E-3,.7958E-4,0
TRANSPORTER-12 OBJECT M,2025-009M,2026-07-22T17:04:09.125472,15.69696477,.00051436,97.3878,295.4500,183.8291,176.2933,0,U,62620,999,8501,.13099971E-2,.157873E-2,0
FLOCK 4G-13,2025-009N,2026-07-22T04:52:13.196064,15.49782255,.00066969,97.3933,287.2285,180.8063,179.3178,0,U,62621,999,8441,.17667713E-2,.99335E-3,0
FLOCK 4G-9,2025-009P,2026-07-22T16:38:29.129280,15.28600310,.00048397,97.3947,284.3924,178.3158,181.8099,0,U,62622,999,8428,.33814325E-3,.9338E-4,0
